{"type": "FeatureCollection", "features": [ {"type": "Feature", "properties": {"norad_id": 66926, "name": "STARLINK-35942", "group": "last-30-days", "lat": 33.4534331206507, "lon": 60.0431807027828, "alt_km": 304.1864323638101, "timestamp": "2025-12-16T17:51:09.663244+00:00", "meta": {"OBJECT_NAME": "STARLINK-35942", "OBJECT_ID": "2025-286B", "EPOCH": "2025-12-15T22:00:01.999584", "MEAN_MOTION": 15.89832875, "ECCENTRICITY": 6.133e-05, "INCLINATION": 53.1571, "RA_OF_ASC_NODE": 34.5412, "ARG_OF_PERICENTER": 94.8869, "MEAN_ANOMALY": 254.9184, "EPHEMERIS_TYPE": 0, "CLASSIFICATION_TYPE": "U", "NORAD_CAT_ID": 66926, "ELEMENT_SET_NO": 999, "REV_AT_EPOCH": 250, "BSTAR": -0.0044158399, "MEAN_MOTION_DOT": -0.01178101, "MEAN_MOTION_DDOT": 0}, "tle": {"line1": "1 66926U 25286B   25349.91668981 -.01178101  00000+0 -44158-2 0  9997", "line2": "2 66926  53.1571  34.5412 0000613  94.8869 254.9184 15.89832875  2502"}}, "geometry": {"type": "Point", "coordinates": [60.0431807027828, 33.4534331206507]}}, {"type": "Feature", "properties": {"norad_id": 66927, "name": "STARLINK-35943", "group": "last-30-days", "lat": 34.80291358286719, "lon": 61.75446479856628, "alt_km": 303.7344328164081, "timestamp": "2025-12-16T17:51:09.663254+00:00", "meta": {"OBJECT_NAME": "STARLINK-35943", "OBJECT_ID": "2025-286C", "EPOCH": "2025-12-15T22:00:01.999584", "MEAN_MOTION": 15.89878632, "ECCENTRICITY": 6.634e-05, "INCLINATION": 53.1571, "RA_OF_ASC_NODE": 34.5377, "ARG_OF_PERICENTER": 83.7672, "MEAN_ANOMALY": 267.8651, "EPHEMERIS_TYPE": 0, "CLASSIFICATION_TYPE": "U", "NORAD_CAT_ID": 66927, "ELEMENT_SET_NO": 999, "REV_AT_EPOCH": 250, "BSTAR": -0.0044169856, "MEAN_MOTION_DOT": -0.01180822, "MEAN_MOTION_DDOT": 0}, "tle": {"line1": "1 66927U 25286C   25349.91668981 -.01180822  00000+0 -44170-2 0  9995", "line2": "2 66927  53.1571  34.5377 0000663  83.7672 267.8651 15.89878632  2500"}}, "geometry": {"type": "Point", "coordinates": [61.75446479856628, 34.80291358286719]}}, {"type": "Feature", "properties": {"norad_id": 66928, "name": "STARLINK-35944", "group": "last-30-days", "lat": 32.05932335555007, "lon": 58.35954183781426, "alt_km": 304.4431896297374, "timestamp": "2025-12-16T17:51:09.663264+00:00", "meta": {"OBJECT_NAME": "STARLINK-35944", "OBJECT_ID": "2025-286D", "EPOCH": "2025-12-15T22:00:01.999584", "MEAN_MOTION": 15.89789276, "ECCENTRICITY": 6.144e-05, "INCLINATION": 53.1571, "RA_OF_ASC_NODE": 34.5451, "ARG_OF_PERICENTER": 84.7232, "MEAN_ANOMALY": 263.2072, "EPHEMERIS_TYPE": 0, "CLASSIFICATION_TYPE": "U", "NORAD_CAT_ID": 66928, "ELEMENT_SET_NO": 999, "REV_AT_EPOCH": 250, "BSTAR": -0.0044008479, "MEAN_MOTION_DOT": -0.01172309, "MEAN_MOTION_DDOT": 0}, "tle": {"line1": "1 66928U 25286D   25349.91668981 -.01172309  00000+0 -44008-2 0  9997", "line2": "2 66928  53.1571  34.5451 0000614  84.7232 263.2072 15.89789276  2505"}}, "geometry": {"type": "Point", "coordinates": [58.35954183781426, 32.05932335555007]}}, {"type": "Feature", "properties": {"norad_id": 66929, "name": "STARLINK-36169", "group": "last-30-days", "lat": 36.24008361008095, "lon": 63.67646754675675, "alt_km": 303.38751055445846, "timestamp": "2025-12-16T17:51:09.663276+00:00", "meta": {"OBJECT_NAME": "STARLINK-36169", "OBJECT_ID": "2025-286E", "EPOCH": "2025-12-15T22:00:01.999584", "MEAN_MOTION": 15.89923643, "ECCENTRICITY": 6.454e-05, "INCLINATION": 53.157, "RA_OF_ASC_NODE": 34.5333, "ARG_OF_PERICENTER": 82.2774, "MEAN_ANOMALY": 271.3581, "EPHEMERIS_TYPE": 0, "CLASSIFICATION_TYPE": "U", "NORAD_CAT_ID": 66929, "ELEMENT_SET_NO": 999, "REV_AT_EPOCH": 250, "BSTAR": -0.0044265762, "MEAN_MOTION_DOT": -0.01185443, "MEAN_MOTION_DDOT": 0}, "tle": {"line1": "1 66929U 25286E   25349.91668981 -.01185443  00000+0 -44266-2 0  9997", "line2": "2 66929  53.1570  34.5333 0000645  82.2774 271.3581 15.89923643  2505"}}, "geometry": {"type": "Point", "coordinates": [63.67646754675675, 36.24008361008095]}}, {"type": "Feature", "properties": {"norad_id": 66930, "name": "STARLINK-36206", "group": "last-30-days", "lat": 37.50088191983345, "lon": 65.45954566522565, "alt_km": 303.2065364320315, "timestamp": "2025-12-16T17:51:09.663286+00:00", "meta": {"OBJECT_NAME": "STARLINK-36206", "OBJECT_ID": "2025-286F", "EPOCH": "2025-12-15T22:00:01.999584", "MEAN_MOTION": 15.89970119, "ECCENTRICITY": 5.606e-05, "INCLINATION": 53.1568, "RA_OF_ASC_NODE": 34.5294, "ARG_OF_PERICENTER": 95.997, "MEAN_ANOMALY": 259.4194, "EPHEMERIS_TYPE": 0, "CLASSIFICATION_TYPE": "U", "NORAD_CAT_ID": 66930, "ELEMENT_SET_NO": 999, "REV_AT_EPOCH": 250, "BSTAR": -0.004438221, "MEAN_MOTION_DOT": -0.01190592, "MEAN_MOTION_DDOT": 0}, "tle": {"line1": "1 66930U 25286F   25349.91668981 -.01190592  00000+0 -44382-2 0  9999", "line2": "2 66930  53.1568  34.5294 0000560  95.9970 259.4194 15.89970119  2502"}}, "geometry": {"type": "Point", "coordinates": [65.45954566522565, 37.50088191983345]}}, {"type": "Feature", "properties": {"norad_id": 66931, "name": "STARLINK-36130", "group": "last-30-days", "lat": 38.91445262958205, "lon": 67.5824116657936, "alt_km": 302.70891211905564, "timestamp": "2025-12-16T17:51:09.663297+00:00", "meta": {"OBJECT_NAME": "STARLINK-36130", "OBJECT_ID": "2025-286G", "EPOCH": "2025-12-15T22:00:01.999584", "MEAN_MOTION": 15.90015524, "ECCENTRICITY": 6.464e-05, "INCLINATION": 53.1569, "RA_OF_ASC_NODE": 34.5252, "ARG_OF_PERICENTER": 78.9752, "MEAN_ANOMALY": 278.5029, "EPHEMERIS_TYPE": 0, "CLASSIFICATION_TYPE": "U", "NORAD_CAT_ID": 66931, "ELEMENT_SET_NO": 999, "REV_AT_EPOCH": 250, "BSTAR": -0.0044454999, "MEAN_MOTION_DOT": -0.0119478, "MEAN_MOTION_DDOT": 0}, "tle": {"line1": "1 66931U 25286G   25349.91668981 -.01194780  00000+0 -44455-2 0  9994", "line2": "2 66931  53.1569  34.5252 0000646  78.9752 278.5029 15.90015524  2503"}}, "geometry": {"type": "Point", "coordinates": [67.5824116657936, 38.91445262958205]}}, {"type": "Feature", "properties": {"norad_id": 66932, "name": "STARLINK-36177", "group": "last-30-days", "lat": 40.25068114257361, "lon": 69.72879679606163, "alt_km": 302.393775702466, "timestamp": "2025-12-16T17:51:09.663308+00:00", "meta": {"OBJECT_NAME": "STARLINK-36177", "OBJECT_ID": "2025-286H", "EPOCH": "2025-12-15T22:00:01.999584", "MEAN_MOTION": 15.90065847, "ECCENTRICITY": 6.626e-05, "INCLINATION": 53.1568, "RA_OF_ASC_NODE": 34.521, "ARG_OF_PERICENTER": 80.0123, "MEAN_ANOMALY": 279.4708, "EPHEMERIS_TYPE": 0, "CLASSIFICATION_TYPE": "U", "NORAD_CAT_ID": 66932, "ELEMENT_SET_NO": 999, "REV_AT_EPOCH": 250, "BSTAR": -0.0044752662, "MEAN_MOTION_DOT": -0.0120447, "MEAN_MOTION_DDOT": 0}, "tle": {"line1": "1 66932U 25286H   25349.91668981 -.01204470  00000+0 -44753-2 0  9994", "line2": "2 66932  53.1568  34.5210 0000662  80.0123 279.4708 15.90065847  2508"}}, "geometry": {"type": "Point", "coordinates": [69.72879679606163, 40.25068114257361]}}, {"type": "Feature", "properties": {"norad_id": 66933, "name": "STARLINK-36157", "group": "last-30-days", "lat": 41.52940275732317, "lon": 71.93153343071843, "alt_km": 302.1188508699961, "timestamp": "2025-12-16T17:51:09.663322+00:00", "meta": {"OBJECT_NAME": "STARLINK-36157", "OBJECT_ID": "2025-286J", "EPOCH": "2025-12-15T22:00:01.999584", "MEAN_MOTION": 15.90110512, "ECCENTRICITY": 6.071e-05, "INCLINATION": 53.1568, "RA_OF_ASC_NODE": 34.5169, "ARG_OF_PERICENTER": 83.2488, "MEAN_ANOMALY": 278.2052, "EPHEMERIS_TYPE": 0, "CLASSIFICATION_TYPE": "U", "NORAD_CAT_ID": 66933, "ELEMENT_SET_NO": 999, "REV_AT_EPOCH": 250, "BSTAR": -0.0044725675, "MEAN_MOTION_DOT": -0.01206218, "MEAN_MOTION_DDOT": 0}, "tle": {"line1": "1 66933U 25286J   25349.91668981 -.01206218  00000+0 -44726-2 0  9997", "line2": "2 66933  53.1568  34.5169 0000607  83.2488 278.2052 15.90110512  2509"}}, "geometry": {"type": "Point", "coordinates": [71.93153343071843, 41.52940275732317]}}, {"type": "Feature", "properties": {"norad_id": 66934, "name": "STARLINK-36153", "group": "last-30-days", "lat": 42.76888026999582, "lon": 74.23029362005379, "alt_km": 301.8246491006139, "timestamp": "2025-12-16T17:51:09.663335+00:00", "meta": {"OBJECT_NAME": "STARLINK-36153", "OBJECT_ID": "2025-286K", "EPOCH": "2025-12-15T22:00:01.999584", "MEAN_MOTION": 15.90158421, "ECCENTRICITY": 6.49e-05, "INCLINATION": 53.1568, "RA_OF_ASC_NODE": 34.5124, "ARG_OF_PERICENTER": 86.7903, "MEAN_ANOMALY": 276.6555, "EPHEMERIS_TYPE": 0, "CLASSIFICATION_TYPE": "U", "NORAD_CAT_ID": 66934, "ELEMENT_SET_NO": 999, "REV_AT_EPOCH": 250, "BSTAR": -0.0045000789, "MEAN_MOTION_DOT": -0.01215301, "MEAN_MOTION_DDOT": 0}, "tle": {"line1": "1 66934U 25286K   25349.91668981 -.01215301  00000+0 -45001-2 0  9998", "line2": "2 66934  53.1568  34.5124 0000649  86.7903 276.6555 15.90158421  2508"}}, "geometry": {"type": "Point", "coordinates": [74.23029362005379, 42.76888026999582]}}, {"type": "Feature", "properties": {"norad_id": 66935, "name": "STARLINK-36127", "group": "last-30-days", "lat": 44.113939348904715, "lon": 76.9451273766427, "alt_km": 301.5358819341136, "timestamp": "2025-12-16T17:51:09.663345+00:00", "meta": {"OBJECT_NAME": "STARLINK-36127", "OBJECT_ID": "2025-286L", "EPOCH": "2025-12-15T22:00:01.999584", "MEAN_MOTION": 15.90206554, "ECCENTRICITY": 5.967e-05, "INCLINATION": 53.1567, "RA_OF_ASC_NODE": 34.508, "ARG_OF_PERICENTER": 89.4227, "MEAN_ANOMALY": 276.2746, "EPHEMERIS_TYPE": 0, "CLASSIFICATION_TYPE": "U", "NORAD_CAT_ID": 66935, "ELEMENT_SET_NO": 999, "REV_AT_EPOCH": 250, "BSTAR": -0.0045031285, "MEAN_MOTION_DOT": -0.01242783, "MEAN_MOTION_DDOT": 0}, "tle": {"line1": "1 66935U 25286L   25349.91668981 -.01242783  00000+0 -45031-2 0  9996", "line2": "2 66935  53.1567  34.5080 0000596  89.4227 276.2746 15.90206554  2508"}}, "geometry": {"type": "Point", "coordinates": [76.9451273766427, 44.113939348904715]}}]}